CCSDS_OMM_VERS = 2.0
CREATION_DATE  = 
ORIGINATOR     = 

OBJECT_NAME    = ATLAS CENTAUR R/B
OBJECT_ID      = 1972-065B
CENTER_NAME    = EARTH
REF_FRAME      = TEME
TIME_SYSTEM    = UTC
MEAN_ELEMENT_THEORY = SGP/SGP4

EPOCH          = 2026-04-04T05:35:21.604416
MEAN_MOTION    = 14.77765636
ECCENTRICITY   = .00339518
INCLINATION    = 35.0006
RA_OF_ASC_NODE = 156.0503
ARG_OF_PERICENTER = 226.0236
MEAN_ANOMALY   = 133.7663

EPHEMERIS_TYPE = 0
CLASSIFICATION_TYPE = U
NORAD_CAT_ID   = 6155
ELEMENT_SET_NO = 999
REV_AT_EPOCH   = 84504
BSTAR          = .26508815E-3
MEAN_MOTION_DOT = .193E-4
MEAN_MOTION_DDOT = 0

CCSDS_OMM_VERS = 2.0
CREATION_DATE  = 
ORIGINATOR     = 

OBJECT_NAME    = SL-8 R/B
OBJECT_ID      = 1975-112B
CENTER_NAME    = EARTH
REF_FRAME      = TEME
TIME_SYSTEM    = UTC
MEAN_ELEMENT_THEORY = SGP/SGP4

EPOCH          = 2026-04-04T02:25:05.537856
MEAN_MOTION    = 14.38219251
ECCENTRICITY   = .00146959
INCLINATION    = 74.0622
RA_OF_ASC_NODE = 332.1708
ARG_OF_PERICENTER = 55.1398
MEAN_ANOMALY   = 305.1135

EPHEMERIS_TYPE = 0
CLASSIFICATION_TYPE = U
NORAD_CAT_ID   = 8459
ELEMENT_SET_NO = 999
REV_AT_EPOCH   = 63552
BSTAR          = .13364312E-3
MEAN_MOTION_DOT = .38E-5
MEAN_MOTION_DDOT = 0

CCSDS_OMM_VERS = 2.0
CREATION_DATE  = 
ORIGINATOR     = 

OBJECT_NAME    = SL-3 R/B
OBJECT_ID      = 1977-057B
CENTER_NAME    = EARTH
REF_FRAME      = TEME
TIME_SYSTEM    = UTC
MEAN_ELEMENT_THEORY = SGP/SGP4

EPOCH          = 2026-04-04T05:21:08.331840
MEAN_MOTION    = 15.46271076
ECCENTRICITY   = .00072165
INCLINATION    = 97.5803
RA_OF_ASC_NODE = 267.2870
ARG_OF_PERICENTER = 181.5275
MEAN_ANOMALY   = 178.5953

EPHEMERIS_TYPE = 0
CLASSIFICATION_TYPE = U
NORAD_CAT_ID   = 10114
ELEMENT_SET_NO = 999
REV_AT_EPOCH   = 67227
BSTAR          = .43360974E-3
MEAN_MOTION_DOT = .21303E-3
MEAN_MOTION_DDOT = 0

CCSDS_OMM_VERS = 2.0
CREATION_DATE  = 
ORIGINATOR     = 

OBJECT_NAME    = SEASAT 1
OBJECT_ID      = 1978-064A
CENTER_NAME    = EARTH
REF_FRAME      = TEME
TIME_SYSTEM    = UTC
MEAN_ELEMENT_THEORY = SGP/SGP4

EPOCH          = 2026-04-04T03:48:42.243264
MEAN_MOTION    = 14.46183766
ECCENTRICITY   = .00027247
INCLINATION    = 108.0068
RA_OF_ASC_NODE = 178.9384
ARG_OF_PERICENTER = 272.8719
MEAN_ANOMALY   = 87.2115

EPHEMERIS_TYPE = 0
CLASSIFICATION_TYPE = U
NORAD_CAT_ID   = 10967
ELEMENT_SET_NO = 999
REV_AT_EPOCH   = 51019
BSTAR          = .19372638E-3
MEAN_MOTION_DOT = .556E-5
MEAN_MOTION_DDOT = 0

CCSDS_OMM_VERS = 2.0
CREATION_DATE  = 
ORIGINATOR     = 

OBJECT_NAME    = SL-14 R/B
OBJECT_ID      = 1979-011B
CENTER_NAME    = EARTH
REF_FRAME      = TEME
TIME_SYSTEM    = UTC
MEAN_ELEMENT_THEORY = SGP/SGP4

EPOCH          = 2026-04-04T04:49:17.048928
MEAN_MOTION    = 14.91945347
ECCENTRICITY   = .00153551
INCLINATION    = 82.5219
RA_OF_ASC_NODE = 72.3555
ARG_OF_PERICENTER = 337.9018
MEAN_ANOMALY   = 22.1537

EPHEMERIS_TYPE = 0
CLASSIFICATION_TYPE = U
NORAD_CAT_ID   = 11267
ELEMENT_SET_NO = 999
REV_AT_EPOCH   = 53258
BSTAR          = .10307147E-3
MEAN_MOTION_DOT = .107E-4
MEAN_MOTION_DDOT = 0

CCSDS_OMM_VERS = 2.0
CREATION_DATE  = 
ORIGINATOR     = 

OBJECT_NAME    = SL-8 R/B
OBJECT_ID      = 1979-089B
CENTER_NAME    = EARTH
REF_FRAME      = TEME
TIME_SYSTEM    = UTC
MEAN_ELEMENT_THEORY = SGP/SGP4

EPOCH          = 2026-04-04T06:28:16.565952
MEAN_MOTION    = 14.42369247
ECCENTRICITY   = .00165342
INCLINATION    = 74.0702
RA_OF_ASC_NODE = 43.6889
ARG_OF_PERICENTER = 212.8113
MEAN_ANOMALY   = 147.2018

EPHEMERIS_TYPE = 0
CLASSIFICATION_TYPE = U
NORAD_CAT_ID   = 11574
ELEMENT_SET_NO = 999
REV_AT_EPOCH   = 43979
BSTAR          = .164543E-3
MEAN_MOTION_DOT = .518E-5
MEAN_MOTION_DDOT = 0

CCSDS_OMM_VERS = 2.0
CREATION_DATE  = 
ORIGINATOR     = 

OBJECT_NAME    = SL-14 R/B
OBJECT_ID      = 1980-005B
CENTER_NAME    = EARTH
REF_FRAME      = TEME
TIME_SYSTEM    = UTC
MEAN_ELEMENT_THEORY = SGP/SGP4

EPOCH          = 2026-04-04T05:32:14.959680
MEAN_MOTION    = 14.90962304
ECCENTRICITY   = .00172306
INCLINATION    = 82.5107
RA_OF_ASC_NODE = 283.0013
ARG_OF_PERICENTER = 79.4284
MEAN_ANOMALY   = 280.8875

EPHEMERIS_TYPE = 0
CLASSIFICATION_TYPE = U
NORAD_CAT_ID   = 11672
ELEMENT_SET_NO = 999
REV_AT_EPOCH   = 48029
BSTAR          = .86873896E-4
MEAN_MOTION_DOT = .885E-5
MEAN_MOTION_DDOT = 0

CCSDS_OMM_VERS = 2.0
CREATION_DATE  = 
ORIGINATOR     = 

OBJECT_NAME    = SL-8 R/B
OBJECT_ID      = 1981-003B
CENTER_NAME    = EARTH
REF_FRAME      = TEME
TIME_SYSTEM    = UTC
MEAN_ELEMENT_THEORY = SGP/SGP4

EPOCH          = 2026-04-03T23:00:42.305472
MEAN_MOTION    = 15.12164288
ECCENTRICITY   = .02598728
INCLINATION    = 82.9334
RA_OF_ASC_NODE = 266.6348
ARG_OF_PERICENTER = 90.8612
MEAN_ANOMALY   = 272.2403

EPHEMERIS_TYPE = 0
CLASSIFICATION_TYPE = U
NORAD_CAT_ID   = 12139
ELEMENT_SET_NO = 999
REV_AT_EPOCH   = 31849
BSTAR          = .84192488E-3
MEAN_MOTION_DOT = .3385E-3
MEAN_MOTION_DDOT = 0

CCSDS_OMM_VERS = 2.0
CREATION_DATE  = 
ORIGINATOR     = 

OBJECT_NAME    = SL-3 R/B
OBJECT_ID      = 1981-046B
CENTER_NAME    = EARTH
REF_FRAME      = TEME
TIME_SYSTEM    = UTC
MEAN_ELEMENT_THEORY = SGP/SGP4

EPOCH          = 2026-04-04T05:12:09.191520
MEAN_MOTION    = 15.42667571
ECCENTRICITY   = .00180682
INCLINATION    = 81.2289
RA_OF_ASC_NODE = 259.0699
ARG_OF_PERICENTER = 291.3975
MEAN_ANOMALY   = 68.5340

EPHEMERIS_TYPE = 0
CLASSIFICATION_TYPE = U
NORAD_CAT_ID   = 12465
ELEMENT_SET_NO = 999
REV_AT_EPOCH   = 44236
BSTAR          = .44337649E-3
MEAN_MOTION_DOT = .19486E-3
MEAN_MOTION_DDOT = 0

CCSDS_OMM_VERS = 2.0
CREATION_DATE  = 
ORIGINATOR     = 

OBJECT_NAME    = SL-3 R/B
OBJECT_ID      = 1981-103B
CENTER_NAME    = EARTH
REF_FRAME      = TEME
TIME_SYSTEM    = UTC
MEAN_ELEMENT_THEORY = SGP/SGP4

EPOCH          = 2026-04-04T06:55:39.792000
MEAN_MOTION    = 15.21699844
ECCENTRICITY   = .00130764
INCLINATION    = 81.1611
RA_OF_ASC_NODE = 183.4025
ARG_OF_PERICENTER = 195.8467
MEAN_ANOMALY   = 164.2358

EPHEMERIS_TYPE = 0
CLASSIFICATION_TYPE = U
NORAD_CAT_ID   = 12904
ELEMENT_SET_NO = 999
REV_AT_EPOCH   = 97712
BSTAR          = .3739419E-3
MEAN_MOTION_DOT = .8507E-4
MEAN_MOTION_DDOT = 0

CCSDS_OMM_VERS = 2.0
CREATION_DATE  = 
ORIGINATOR     = 

OBJECT_NAME    = SL-3 R/B
OBJECT_ID      = 1982-013B
CENTER_NAME    = EARTH
REF_FRAME      = TEME
TIME_SYSTEM    = UTC
MEAN_ELEMENT_THEORY = SGP/SGP4

EPOCH          = 2026-04-04T05:18:04.064832
MEAN_MOTION    = 15.22258087
ECCENTRICITY   = .00235037
INCLINATION    = 81.1722
RA_OF_ASC_NODE = 130.8412
ARG_OF_PERICENTER = 94.2092
MEAN_ANOMALY   = 266.1826

EPHEMERIS_TYPE = 0
CLASSIFICATION_TYPE = U
NORAD_CAT_ID   = 13068
ELEMENT_SET_NO = 999
REV_AT_EPOCH   = 40823
BSTAR          = .28210798E-3
MEAN_MOTION_DOT = .6564E-4
MEAN_MOTION_DDOT = 0

CCSDS_OMM_VERS = 2.0
CREATION_DATE  = 
ORIGINATOR     = 

OBJECT_NAME    = SL-3 R/B
OBJECT_ID      = 1982-039B
CENTER_NAME    = EARTH
REF_FRAME      = TEME
TIME_SYSTEM    = UTC
MEAN_ELEMENT_THEORY = SGP/SGP4

EPOCH          = 2026-04-04T07:10:29.600544
MEAN_MOTION    = 15.10238166
ECCENTRICITY   = .00281811
INCLINATION    = 81.1558
RA_OF_ASC_NODE = 186.4311
ARG_OF_PERICENTER = 239.1157
MEAN_ANOMALY   = 120.7296

EPHEMERIS_TYPE = 0
CLASSIFICATION_TYPE = U
NORAD_CAT_ID   = 13154
ELEMENT_SET_NO = 999
REV_AT_EPOCH   = 38550
BSTAR          = .29995517E-3
MEAN_MOTION_DOT = .4973E-4
MEAN_MOTION_DDOT = 0

